OBJECT_NAME,OBJECT_ID,EPOCH,MEAN_MOTION,ECCENTRICITY,INCLINATION,RA_OF_ASC_NODE,ARG_OF_PERICENTER,MEAN_ANOMALY,EPHEMERIS_TYPE,CLASSIFICATION_TYPE,NORAD_CAT_ID,ELEMENT_SET_NO,REV_AT_EPOCH,BSTAR,MEAN_MOTION_DOT,MEAN_MOTION_DDOT
TIANMU-1 20,2023-208B,2026-06-13T06:38:55.562208,15.32709465,.00063442,97.4442,281.1880,349.6478,10.4632,0,U,58661,999,13682,.26429162E-3,.8274E-4,0
TIANMU-1 21,2023-208C,2026-06-13T06:30:35.891136,15.35011644,.00062835,97.4500,283.8460,340.4712,19.6290,0,U,58662,999,13696,.28618652E-3,.9646E-4,0
TIANMU-1 22,2023-208D,2026-06-13T06:46:04.780992,15.31006845,.00036049,97.4496,280.5011,18.2823,341.8547,0,U,58663,999,13673,.263037E-3,.7804E-4,0
TIANMU-1 15,2024-004A,2026-06-13T07:08:59.525088,15.26986076,.00070949,97.4664,350.4880,15.8886,344.2574,0,U,58700,999,13518,.21044872E-3,.5503E-4,0
TIANMU-1 16,2024-004B,2026-06-13T06:52:29.021664,15.26710993,.00062347,97.4610,349.7178,21.0372,339.1122,0,U,58701,999,13518,.21355511E-3,.5538E-4,0
TIANMU-1 17,2024-004C,2026-06-13T06:31:32.030400,15.26710294,.00059098,97.4638,350.1869,27.3206,332.8342,0,U,58702,999,13517,.22100217E-3,.5733E-4,0
TIANMU-1 18,2024-004D,2026-06-13T07:32:51.022752,15.26968843,.00044082,97.4655,350.4824,27.5992,332.5480,0,U,58703,999,13518,.20890105E-3,.5457E-4,0
INSAT-3DS,2024-033A,2026-06-13T01:34:00.807168,1.00271890,.00010176,0.0438,134.5992,300.6696,291.7190,0,U,58990,999,4702,0,-.143E-5,0
METEOR-M2 4,2024-039A,2026-06-13T07:33:03.206880,14.22429211,.00070735,98.7016,123.6613,171.8378,188.2916,0,U,59051,999,11871,.22585239E-4,.7E-7,0
GOES 19,2024-119A,2026-06-13T05:57:07.633728,1.00270171,.00004876,0.0139,155.3768,15.5540,104.7270,0,U,60133,999,692,0,-.236E-5,0
MTG-S1,2025-143A,2026-06-13T06:17:35.672352,1.00271663,.00009695,0.6069,338.0428,13.5818,0.8796,0,U,64723,999,338,0,-.19E-6,0
METOP-SGA1,2025-172A,2026-06-13T03:02:23.887104,14.21509151,.00009265,98.6645,223.9285,90.7176,269.4107,0,U,65159,999,4321,.37992891E-4,.4E-6,0
FENGYUN 3H,2025-219A,2026-06-13T05:39:40.047552,14.19919753,.00016049,98.6768,105.0818,79.0594,281.0763,0,U,65815,999,3682,.34462255E-4,.3E-6,0
