TIANMU-1 20             
1 58661U 23208B   26164.27703197  .00008274  00000+0  26429-3 0  9992
2 58661  97.4442 281.1880 0006344 349.6478  10.4632 15.32709465136822
TIANMU-1 21             
1 58662U 23208C   26164.27124874  .00009646  00000+0  28619-3 0  9999
2 58662  97.4500 283.8460 0006283 340.4712  19.6290 15.35011644136967
TIANMU-1 22             
1 58663U 23208D   26164.28199978  .00007804  00000+0  26304-3 0  9991
2 58663  97.4496 280.5011 0003604  18.2823 341.8547 15.31006845136738
TIANMU-1 15             
1 58700U 24004A   26164.29791117  .00005503  00000+0  21045-3 0  9993
2 58700  97.4664 350.4880 0007094  15.8886 344.2574 15.26986076135189
TIANMU-1 16             
1 58701U 24004B   26164.28644701  .00005538  00000+0  21356-3 0  9992
2 58701  97.4610 349.7178 0006234  21.0372 339.1122 15.26710993135181
TIANMU-1 17             
1 58702U 24004C   26164.27189850  .00005733  00000+0  22100-3 0  9996
2 58702  97.4638 350.1869 0005909  27.3206 332.8342 15.26710294135175
TIANMU-1 18             
1 58703U 24004D   26164.31447943  .00005457  00000+0  20890-3 0  9999
2 58703  97.4655 350.4824 0004408  27.5992 332.5480 15.26968843135182
INSAT-3DS               
1 58990U 24033A   26164.06528712 -.00000143  00000+0  00000+0 0  9990
2 58990   0.0438 134.5992 0001017 300.6696 291.7190  1.00271890 47020
METEOR-M2 4             
1 59051U 24039A   26164.31462045  .00000007  00000+0  22585-4 0  9994
2 59051  98.7016 123.6613 0007073 171.8378 188.2916 14.22429211118718
GOES 19                 
1 60133U 24119A   26164.24800502 -.00000236  00000+0  00000+0 0  9990
2 60133   0.0139 155.3768 0000487  15.5540 104.7270  1.00270171  6929
MTG-S1                  
1 64723U 25143A   26164.26221843 -.00000019  00000+0  00000+0 0  9993
2 64723   0.6069 338.0428 0000969  13.5818   0.8796  1.00271663  3383
METOP-SGA1              
1 65159U 25172A   26164.12666536  .00000040  00000+0  37993-4 0  9995
2 65159  98.6645 223.9285 0000926  90.7176 269.4107 14.21509151 43212
FENGYUN 3H              
1 65815U 25219A   26164.23588018  .00000030  00000+0  34462-4 0  9993
2 65815  98.6768 105.0818 0001604  79.0594 281.0763 14.19919753 36824
